[{"OBJECT_NAME":"STARLINK-1551","OBJECT_ID":"2020-055BA","EPOCH":"2026-03-09T11:43:17.590656","MEAN_MOTION":15.06398019,"ECCENTRICITY":0.00013466,"INCLINATION":53.0548,"RA_OF_ASC_NODE":97.5217,"ARG_OF_PERICENTER":93.409,"MEAN_ANOMALY":266.7054,"EPHEMERIS_TYPE":0,"CLASSIFICATION_TYPE":"U","NORAD_CAT_ID":46075,"ELEMENT_SET_NO":999,"REV_AT_EPOCH":30927,"BSTAR":-2.9092334e-5,"MEAN_MOTION_DOT":-7.15e-6,"MEAN_MOTION_DDOT":0},{"OBJECT_NAME":"JILIN-01 KUANFU 02B 4","OBJECT_ID":"2024-169D","EPOCH":"2026-03-09T23:04:43.463424","MEAN_MOTION":15.0922271,"ECCENTRICITY":0.00080501,"INCLINATION":97.5522,"RA_OF_ASC_NODE":159.355,"ARG_OF_PERICENTER":260.1533,"MEAN_ANOMALY":99.8787,"EPHEMERIS_TYPE":0,"CLASSIFICATION_TYPE":"U","NORAD_CAT_ID":61192,"ELEMENT_SET_NO":999,"REV_AT_EPOCH":8086,"BSTAR":0.00035789888,"MEAN_MOTION_DOT":5.634e-5,"MEAN_MOTION_DDOT":0}]
